#dP2019 12 10  0  0  0.00000000      96 __u+U ITR00 FIT  IAC
## 2083 172800.00000000   900.00000000 58827 0.0000000000000
+  105   C06C07C08C09C10C11C12C13C14C16C19C20C21C22C23C24C25
+        C26C27C28C29C30C32C33C34C35C36C37E01E02E03E04E05E07
+        E08E09E11E12E13E14E15E18E19E21E24E25E26E27E30E31E33
+        E36G01G02G03G04G05G06G07G08G09G10G11G12G13G14G15G16
+        G17G18G19G20G21G22G23G24G25G26G27G28G29G30G31G32R01
+        R02R03R05R07R08R09R11R12R13R14R15R16R17R18R19R20R21
+        R22R23R26  0  0  0  0  0  0  0  0  0  0  0  0  0  0
++         8  8  9  8  8  8  8  9  8  8  8  8  8  8  7  7  8
++         7  8  8  8  7  8  8  8  8  8  8  4  5  5  5  5  4
++         5  5  4  5  4  5  4  4  4  4  5  5  4  4  5  5  4
++         5  3  3  3  4  4  4  3  3  4  4  3  4  4  4  4  3
++         3  4  3  4  4  3  3  4  4  3  3  4  4  3  4  4  6
++         5  5  5  5  6  5  5  6  6  5  5  6  6  5  6  6  6
++         5  5  8  0  0  0  0  0  0  0  0  0  0  0  0  0  0
%c M  cc GPS ccc cccc cccc cccc cccc ccccc ccccc ccccc ccccc
%c cc cc ccc ccc cccc cccc cccc cccc ccccc ccccc ccccc ccccc
%f  0.0000000  0.000000000  0.00000000000  0.000000000000000
%f  0.0000000  0.000000000  0.00000000000  0.000000000000000
%i    0    0    0    0      0      0      0      0         0
%i    0    0    0    0      0      0      0      0         0
/* INFORMATION & ANALYSIS CENTER (IAC)      ULTRA-RAPID DATA
/* S/V CLOCKS ARE ALIGNED TO GNSS TIME                      
/* G:C1WC2W R:C1PC2P E:C1XC5X C:C2IC6I J:C1CC2S             
/* PCV:IGS14_2080 OL/AL:FES2004  NONE     YN ORB:CoN CLK:CoN
*  2019 12 10 13 15  0.00000000
PC06 -10735.314765  36525.616860 -17344.866046    290.433913
PC07 -13764.680393  22443.393697  33090.023199    180.074519
PC08 -25599.501997  29310.479244 -16552.909967    -52.163221
PC09  -1309.314285  41863.389876  -2301.817549    177.528047
PC10   4003.669245  28244.567042  31335.447563   -447.681625
PC11  -4287.948340 -22543.343312  15900.730231    -52.088266
PC12   8392.791083 -26556.975666  -1352.194054    303.333503
PC13 -10927.746912  29862.575771 -27764.751367    148.963899
PC14 -15047.265582 -22310.856116   7305.803320    358.879393
PC16  -8586.910295  38067.928723 -15695.416736   -940.138020
PC19  20533.170550  18835.375500   1659.757789    267.063976
PC20   7911.637547  22369.961966 -14699.518879   -398.573152
PC21   9877.616582 -12660.677384  22830.617021    118.136115
PC22  21438.714019   4351.191420  17336.820554   -493.421764
PC23 -27331.236665   3721.606763  -4241.893832   -870.097358
PC24   1525.031978 -16671.936801 -22324.204434   -883.229403
PC25 -18852.493256  -8509.114815 -18743.891599   -442.436737
PC26  19457.349319 -15035.380860 -13165.522707    491.397672
PC27 -13735.538760  22137.098113   9970.874111    240.071924
PC28 -16987.039828   4524.474782  21683.208758    231.115360
PC29  10899.644058  15262.377070 -20664.735057    157.761807
PC30  -1632.869652  26875.692682  -7296.578159    237.871788
PC32  -9778.985956  12749.380197 -22810.286357 999999.999999
PC33 -20576.504367 -18774.585221  -1569.145927   -654.968677
PC34   1463.977125 -26815.851750   7622.506322   -299.954123
PC35  16867.636597  -4977.343685 -21666.884307   -643.253833
PC36  18465.836938   9078.587913  18878.042961   -878.409731
PC37 -20273.190874  14388.040755  12716.504395   -878.230317
PE01  -7307.837539 -16827.116804 -23225.051641   -749.465458
PE02   7369.848963  16827.516699  23211.076002     97.744276
PE03   7449.335005  28349.901169  -4179.559256   -242.322380
PE04 -17675.698184 -19384.435404 -13713.933200   -422.447078
PE05  -7252.592758  20776.644068 -19803.213658   -424.021184
PE07  17624.499655  -1103.032194  23754.784774   -310.798297
PE08  17784.699007  19153.423056  13899.708949   6251.199871
PE09 -17457.316260   1278.212098 -23871.127369   6225.840820
PE11 -22372.158952  10781.368538  16100.934541    304.493903
PE12 -13745.219905  -8930.369519  24654.993211   6058.412713
PE13  22259.970602 -10739.673359 -16275.518678    396.229714
PE14 -10865.799961 -16912.255831  13354.396892   -825.387862
PE15  13905.762563   8560.307735 -24675.811014    884.863034
PE18  18655.812196  12773.606813 -23037.093606   -921.081344
PE19  -6026.117956 -28313.431286   6185.154526     -2.506319
PE21  14836.802340 -12566.177953 -22314.782460   -570.575016
PE24 -28418.700584    767.286661   8280.668970   5723.344876
PE25 -14935.764268  12529.464542  22284.450641   -498.063186
PE26  17594.173835 -23719.830891   1912.081115   3779.917270
PE27  28403.799844   -890.731347  -8262.284602    327.997648
PE30  25139.921262  11446.390999  10616.090675   4316.899018
PE31 -25256.818468 -11248.057273 -10562.523193   -470.866814
PE33   2604.086430 -22863.836267  18628.644566   -471.550659
PE36 -17578.725882  23758.952213  -1665.589303    626.087380
PG01  -8457.741568  18852.265250 -16704.284438   -225.127880
PG02  21937.900702 -14574.333491  -2253.457586   -363.591891
PG03   3531.124445  17281.075771 -19944.229667    -50.499939
PG04   -224.671755  26504.761767  -1273.403870    -18.894448
PG05  17245.700317  -6848.768930  18935.809293     -4.519060
PG06  22219.084713  -3200.343511 -14170.059062   -149.413291
PG07   8933.024419  12664.631605  21859.651459   -166.958169
PG08  -6595.720176  22676.786062  11957.354567    -16.273926
PG09   7353.034190  24258.301177   7857.223514   -104.653717
PG10 -24131.577878 -11348.406188   -936.831954   -166.933272
PG11  -5455.768891  24386.882490  -9943.318826   -423.472087
PG12   2177.503692 -15575.119750 -21649.651258    174.686938
PG13  12743.540654 -15898.935818  16873.256353    -27.555142
PG14 -15068.094462   1818.626639 -21460.336921    -45.658366
PG15   4347.986035 -23600.050414  10650.457369   -266.686996
PG16 -18604.287786   3189.149442  18672.610769   -101.607506
PG17  13365.672591  10333.541530 -20087.297720    178.231473
PG18 -14866.714615  19743.189328 -10103.190539    105.760765
PG19  14796.156974   1908.068853 -22266.934098   -228.248477
PG20 -20158.002064 -14571.263791   9490.849390    527.626417
PG21 -12013.013568 -10574.057812  21972.736700    -73.055350
PG22  -4800.397893  15083.175648 -21113.807241   -776.788474
PG23   1475.301977  26281.156099   -823.547264   -150.430807
PG24   9372.878434 -20140.805344 -14467.922636     -6.026349
PG25 -12732.515854 -18097.175880 -15100.176459    -17.393893
PG26 -23991.786589  -2182.224786  11393.551645    102.633710
PG27 -12381.427165  12815.791053  19472.991029   -146.098333
PG28  22931.276673  13081.374122  -1562.804613    751.274943
PG29  -4678.050452 -25038.984207   7454.711606     22.196270
PG30  18638.126188   4527.243265  18483.492344   -102.761335
PG31 -23504.786294   4629.693693 -11980.187723     -8.861657
PG32 -14768.397532  -9180.831409 -20052.096855    151.211903
PR01  10001.057327  21728.275675  -8886.399499     53.912286
PR02  16842.116305  15024.929711  11860.047154    401.751564
PR03  12376.740367   -716.556484  22316.950447      6.239261
PR05 -11248.972167 -22004.104910   6371.722058     40.956380
PR07 -12127.172311   1131.741169 -22391.077171    -30.546468
PR08   -846.711528  15777.008803 -19976.677610     13.873903
PR09 -23892.047218  -2407.654692  -8493.639707    105.523230
PR11 -11165.292686  10654.019777  20313.380604     17.131273
PR12   7197.491260  10049.035811  22338.728567     86.674717
PR13  22592.950652   3495.718590  11299.851202    -32.079929
PR14  24319.575557  -4658.535564  -6132.526688     45.914718
PR15  12128.319690 -10296.376783 -19913.506905    105.143165
PR16  -7921.462020  -9989.074327 -22133.545777     -0.372541
PR17  14612.986944 -12067.996281 -17035.317443    282.682019
PR18  11983.035941 -22484.357802  -1678.276769     17.479697
PR19   3616.576565 -20763.848666  14367.921300    -68.220897
PR20  -8652.257670  -5881.507474  23277.469338   -398.473068
PR21 -14661.454214  12825.875197  16492.890327    -90.733373
PR22 -10852.916223  22978.330253  -1311.699309     -4.905293
PR23    738.032763  17328.493104 -18708.237169    272.284749
PR26  -6762.813511  -9353.525121  22758.663024     14.343766
EOF
